BEIJING 1               
1 28890U 05043A   22298.21427062  .00000302  00000+0  70286-4 0  9997
2 28890  98.1338  58.3440 0016244 125.5686 234.7032 14.61523279906090
HJ-1A                   
1 33320U 08041A   22298.21113551  .00000453  00000+0  69375-4 0  9991
2 33320  97.6679 325.1246 0021132 166.0191 194.1614 14.77958044761552
HJ-1B                   
1 33321U 08041B   22298.16260035  .00000976  00000+0  14107-3 0  9998
2 33321  97.6840 328.9040 0033892 186.0690 174.0119 14.77964032761548
YAOGAN 4                
1 33446U 08061A   22297.80181394  .00000672  00000+0  10100-3 0  9990
2 33446  97.8267 234.0534 0017678  76.5586 283.7593 14.77531946748696
DEIMOS-1                
1 35681U 09041A   22298.15430296  .00000396  00000+0  70236-4 0  9999
2 35681  97.6997 142.4892 0002194 125.8588 234.2819 14.72148062710850
UK-DMC 2                
1 35683U 09041C   22298.09892533  .00000664  00000+0  11423-3 0  9990
2 35683  97.7083 104.2469 0001148  99.7826 260.3499 14.71554596710572
RISAT 1                 
1 38248U 12017A   22298.08427350  .00002825  00000+0  16475-3 0  9990
2 38248  97.5517 308.0845 0004588 149.3378 210.8121 15.12780500578430
DMC3-FM1                
1 40715U 15032A   22298.15276599  .00000538  00000+0  73870-4 0  9999
2 40715  97.8268 182.2959 0007370  94.4352 265.7707 14.82243569392506
DMC3-FM2                
1 40716U 15032B   22298.10842590  .00000543  00000+0  74514-4 0  9997
2 40716  97.8311 182.9608 0009338  97.8475 262.3807 14.82236238392502
DMC3-FM3                
1 40717U 15032C   22298.12909183  .00000528  00000+0  72566-4 0  9990
2 40717  97.8348 183.9501 0011252  95.9715 264.2789 14.82263790392503
